CCSDS_OMM_VERS = 2.0
CREATION_DATE  = 
ORIGINATOR     = 

OBJECT_NAME    = UNKNOWN
OBJECT_ID      = 
CENTER_NAME    = EARTH
REF_FRAME      = TEME
TIME_SYSTEM    = UTC
MEAN_ELEMENT_THEORY = SGP/SGP4

EPOCH          = 2025-12-30T06:08:30.742368
MEAN_MOTION    = 12.98534519
ECCENTRICITY   = .00455891
INCLINATION    = 90.2365
RA_OF_ASC_NODE = 3.7524
ARG_OF_PERICENTER = 92.1883
MEAN_ANOMALY   = 268.4459

EPHEMERIS_TYPE = 0
CLASSIFICATION_TYPE = U
NORAD_CAT_ID   = 270242
ELEMENT_SET_NO = 999
REV_AT_EPOCH   = 27952
BSTAR          = -.45495673E-3
MEAN_MOTION_DOT = -.127E-5
MEAN_MOTION_DDOT = 0

CCSDS_OMM_VERS = 2.0
CREATION_DATE  = 
ORIGINATOR     = 

OBJECT_NAME    = UNKNOWN
OBJECT_ID      = 
CENTER_NAME    = EARTH
REF_FRAME      = TEME
TIME_SYSTEM    = UTC
MEAN_ELEMENT_THEORY = SGP/SGP4

EPOCH          = 2025-12-20T21:18:49.548672
MEAN_MOTION    = 13.90782021
ECCENTRICITY   = .03308255
INCLINATION    = 98.3067
RA_OF_ASC_NODE = 218.7880
ARG_OF_PERICENTER = 55.6834
MEAN_ANOMALY   = 307.5172

EPHEMERIS_TYPE = 0
CLASSIFICATION_TYPE = U
NORAD_CAT_ID   = 270243
ELEMENT_SET_NO = 999
REV_AT_EPOCH   = 3825
BSTAR          = .13775912E-2
MEAN_MOTION_DOT = .2649E-4
MEAN_MOTION_DDOT = 0

CCSDS_OMM_VERS = 2.0
CREATION_DATE  = 
ORIGINATOR     = 

OBJECT_NAME    = UNKNOWN
OBJECT_ID      = 
CENTER_NAME    = EARTH
REF_FRAME      = TEME
TIME_SYSTEM    = UTC
MEAN_ELEMENT_THEORY = SGP/SGP4

EPOCH          = 2025-12-09T11:10:24.130848
MEAN_MOTION    = 10.71467810
ECCENTRICITY   = .09962545
INCLINATION    = 101.9029
RA_OF_ASC_NODE = 264.1420
ARG_OF_PERICENTER = 244.4375
MEAN_ANOMALY   = 105.0393

EPHEMERIS_TYPE = 0
CLASSIFICATION_TYPE = U
NORAD_CAT_ID   = 270246
ELEMENT_SET_NO = 999
REV_AT_EPOCH   = 22941
BSTAR          = -.22107288E-1
MEAN_MOTION_DOT = -.1023E-4
MEAN_MOTION_DDOT = 0

CCSDS_OMM_VERS = 2.0
CREATION_DATE  = 
ORIGINATOR     = 

OBJECT_NAME    = UNKNOWN
OBJECT_ID      = 
CENTER_NAME    = EARTH
REF_FRAME      = TEME
TIME_SYSTEM    = UTC
MEAN_ELEMENT_THEORY = SGP/SGP4

EPOCH          = 2026-01-04T01:38:06.331776
MEAN_MOTION    = 12.78806822
ECCENTRICITY   = .00676665
INCLINATION    = 66.0664
RA_OF_ASC_NODE = 282.0264
ARG_OF_PERICENTER = 12.1128
MEAN_ANOMALY   = 348.1494

EPHEMERIS_TYPE = 0
CLASSIFICATION_TYPE = U
NORAD_CAT_ID   = 270247
ELEMENT_SET_NO = 999
REV_AT_EPOCH   = 27490
BSTAR          = .18717709E-2
MEAN_MOTION_DOT = .363E-5
MEAN_MOTION_DDOT = 0

CCSDS_OMM_VERS = 2.0
CREATION_DATE  = 
ORIGINATOR     = 

OBJECT_NAME    = UNKNOWN
OBJECT_ID      = 
CENTER_NAME    = EARTH
REF_FRAME      = TEME
TIME_SYSTEM    = UTC
MEAN_ELEMENT_THEORY = SGP/SGP4

EPOCH          = 2025-12-31T03:07:31.815840
MEAN_MOTION    = 12.25487554
ECCENTRICITY   = .00206949
INCLINATION    = 82.4645
RA_OF_ASC_NODE = 322.6931
ARG_OF_PERICENTER = 5.9650
MEAN_ANOMALY   = 354.1662

EPHEMERIS_TYPE = 0
CLASSIFICATION_TYPE = U
NORAD_CAT_ID   = 270248
ELEMENT_SET_NO = 999
REV_AT_EPOCH   = 26185
BSTAR          = .68151695E-2
MEAN_MOTION_DOT = .765E-5
MEAN_MOTION_DDOT = 0

CCSDS_OMM_VERS = 2.0
CREATION_DATE  = 
ORIGINATOR     = 

OBJECT_NAME    = UNKNOWN
OBJECT_ID      = 
CENTER_NAME    = EARTH
REF_FRAME      = TEME
TIME_SYSTEM    = UTC
MEAN_ELEMENT_THEORY = SGP/SGP4

EPOCH          = 2025-12-23T18:30:11.433888
MEAN_MOTION    = 12.95388678
ECCENTRICITY   = .00275043
INCLINATION    = 90.2363
RA_OF_ASC_NODE = 2.6251
ARG_OF_PERICENTER = 301.5040
MEAN_ANOMALY   = 58.3393

EPHEMERIS_TYPE = 0
CLASSIFICATION_TYPE = U
NORAD_CAT_ID   = 270249
ELEMENT_SET_NO = 999
REV_AT_EPOCH   = 27587
BSTAR          = .13743367E-2
MEAN_MOTION_DOT = .395E-5
MEAN_MOTION_DDOT = 0

CCSDS_OMM_VERS = 2.0
CREATION_DATE  = 
ORIGINATOR     = 

OBJECT_NAME    = UNKNOWN
OBJECT_ID      = 
CENTER_NAME    = EARTH
REF_FRAME      = TEME
TIME_SYSTEM    = UTC
MEAN_ELEMENT_THEORY = SGP/SGP4

EPOCH          = 2025-12-30T08:28:29.790912
MEAN_MOTION    = 12.59663822
ECCENTRICITY   = .01984806
INCLINATION    = 82.4458
RA_OF_ASC_NODE = 240.9626
ARG_OF_PERICENTER = 279.1687
MEAN_ANOMALY   = 78.6998

EPHEMERIS_TYPE = 0
CLASSIFICATION_TYPE = U
NORAD_CAT_ID   = 270250
ELEMENT_SET_NO = 999
REV_AT_EPOCH   = 26764
BSTAR          = .90945428E-2
MEAN_MOTION_DOT = .1701E-4
MEAN_MOTION_DDOT = 0

CCSDS_OMM_VERS = 2.0
CREATION_DATE  = 
ORIGINATOR     = 

OBJECT_NAME    = UNKNOWN
OBJECT_ID      = 
CENTER_NAME    = EARTH
REF_FRAME      = TEME
TIME_SYSTEM    = UTC
MEAN_ELEMENT_THEORY = SGP/SGP4

EPOCH          = 2025-12-23T13:01:50.141280
MEAN_MOTION    = 11.48461212
ECCENTRICITY   = .06511827
INCLINATION    = 102.3204
RA_OF_ASC_NODE = 283.6655
ARG_OF_PERICENTER = 147.2735
MEAN_ANOMALY   = 217.0409

EPHEMERIS_TYPE = 0
CLASSIFICATION_TYPE = U
NORAD_CAT_ID   = 270251
ELEMENT_SET_NO = 999
REV_AT_EPOCH   = 24466
BSTAR          = .42453861E-1
MEAN_MOTION_DOT = .303E-4
MEAN_MOTION_DDOT = 0

CCSDS_OMM_VERS = 2.0
CREATION_DATE  = 
ORIGINATOR     = 

OBJECT_NAME    = UNKNOWN
OBJECT_ID      = 
CENTER_NAME    = EARTH
REF_FRAME      = TEME
TIME_SYSTEM    = UTC
MEAN_ELEMENT_THEORY = SGP/SGP4

EPOCH          = 2025-12-13T23:46:37.247232
MEAN_MOTION    = 12.62397058
ECCENTRICITY   = .00003197
INCLINATION    = 51.9815
RA_OF_ASC_NODE = 79.4516
ARG_OF_PERICENTER = 138.9512
MEAN_ANOMALY   = 221.1378

EPHEMERIS_TYPE = 0
CLASSIFICATION_TYPE = U
NORAD_CAT_ID   = 270252
ELEMENT_SET_NO = 999
REV_AT_EPOCH   = 26915
BSTAR          = .25078454E-3
MEAN_MOTION_DOT = -.59E-6
MEAN_MOTION_DDOT = 0

CCSDS_OMM_VERS = 2.0
CREATION_DATE  = 
ORIGINATOR     = 

OBJECT_NAME    = UNKNOWN
OBJECT_ID      = 
CENTER_NAME    = EARTH
REF_FRAME      = TEME
TIME_SYSTEM    = UTC
MEAN_ELEMENT_THEORY = SGP/SGP4

EPOCH          = 2025-12-22T18:46:28.205760
MEAN_MOTION    = 13.00229007
ECCENTRICITY   = .00333579
INCLINATION    = 90.2413
RA_OF_ASC_NODE = 2.8989
ARG_OF_PERICENTER = 341.0734
MEAN_ANOMALY   = 18.9146

EPHEMERIS_TYPE = 0
CLASSIFICATION_TYPE = U
NORAD_CAT_ID   = 270253
ELEMENT_SET_NO = 999
REV_AT_EPOCH   = 27652
BSTAR          = .42254882E-2
MEAN_MOTION_DOT = .1286E-4
MEAN_MOTION_DDOT = 0

CCSDS_OMM_VERS = 2.0
CREATION_DATE  = 
ORIGINATOR     = 

OBJECT_NAME    = UNKNOWN
OBJECT_ID      = 
CENTER_NAME    = EARTH
REF_FRAME      = TEME
TIME_SYSTEM    = UTC
MEAN_ELEMENT_THEORY = SGP/SGP4

EPOCH          = 2025-12-28T17:29:39.916608
MEAN_MOTION    = 12.93260456
ECCENTRICITY   = .00341527
INCLINATION    = 90.2436
RA_OF_ASC_NODE = 3.7768
ARG_OF_PERICENTER = 1.7642
MEAN_ANOMALY   = 358.3591

EPHEMERIS_TYPE = 0
CLASSIFICATION_TYPE = U
NORAD_CAT_ID   = 270256
ELEMENT_SET_NO = 999
REV_AT_EPOCH   = 27698
BSTAR          = .39751463E-3
MEAN_MOTION_DOT = .116E-5
MEAN_MOTION_DDOT = 0

CCSDS_OMM_VERS = 2.0
CREATION_DATE  = 
ORIGINATOR     = 

OBJECT_NAME    = UNKNOWN
OBJECT_ID      = 
CENTER_NAME    = EARTH
REF_FRAME      = TEME
TIME_SYSTEM    = UTC
MEAN_ELEMENT_THEORY = SGP/SGP4

EPOCH          = 2025-12-28T15:07:14.981664
MEAN_MOTION    = 14.81683109
ECCENTRICITY   = .00660994
INCLINATION    = 86.0776
RA_OF_ASC_NODE = 321.9663
ARG_OF_PERICENTER = 245.4548
MEAN_ANOMALY   = 113.9775

EPHEMERIS_TYPE = 0
CLASSIFICATION_TYPE = U
NORAD_CAT_ID   = 270257
ELEMENT_SET_NO = 999
REV_AT_EPOCH   = 8130
BSTAR          = .16298902E-1
MEAN_MOTION_DOT = .135589E-2
MEAN_MOTION_DDOT = 0

CCSDS_OMM_VERS = 2.0
CREATION_DATE  = 
ORIGINATOR     = 

OBJECT_NAME    = UNKNOWN
OBJECT_ID      = 
CENTER_NAME    = EARTH
REF_FRAME      = TEME
TIME_SYSTEM    = UTC
MEAN_ELEMENT_THEORY = SGP/SGP4

EPOCH          = 2025-12-31T02:37:50.049120
MEAN_MOTION    = 12.34009045
ECCENTRICITY   = .03857804
INCLINATION    = 82.3651
RA_OF_ASC_NODE = 303.8114
ARG_OF_PERICENTER = 329.5431
MEAN_ANOMALY   = 28.3729

EPHEMERIS_TYPE = 0
CLASSIFICATION_TYPE = U
NORAD_CAT_ID   = 270258
ELEMENT_SET_NO = 999
REV_AT_EPOCH   = 26236
BSTAR          = .37257806E-1
MEAN_MOTION_DOT = .5928E-4
MEAN_MOTION_DDOT = 0

CCSDS_OMM_VERS = 2.0
CREATION_DATE  = 
ORIGINATOR     = 

OBJECT_NAME    = UNKNOWN
OBJECT_ID      = 
CENTER_NAME    = EARTH
REF_FRAME      = TEME
TIME_SYSTEM    = UTC
MEAN_ELEMENT_THEORY = SGP/SGP4

EPOCH          = 2025-12-30T05:02:51.656640
MEAN_MOTION    = 12.83363126
ECCENTRICITY   = .0376832
INCLINATION    = 63.2126
RA_OF_ASC_NODE = 330.6701
ARG_OF_PERICENTER = 21.3525
MEAN_ANOMALY   = 340.2730

EPHEMERIS_TYPE = 0
CLASSIFICATION_TYPE = U
NORAD_CAT_ID   = 270261
ELEMENT_SET_NO = 999
REV_AT_EPOCH   = 27248
BSTAR          = .15374496E-2
MEAN_MOTION_DOT = .42E-5
MEAN_MOTION_DDOT = 0

CCSDS_OMM_VERS = 2.0
CREATION_DATE  = 
ORIGINATOR     = 

OBJECT_NAME    = UNKNOWN
OBJECT_ID      = 
CENTER_NAME    = EARTH
REF_FRAME      = TEME
TIME_SYSTEM    = UTC
MEAN_ELEMENT_THEORY = SGP/SGP4

EPOCH          = 2025-12-23T06:17:42.309600
MEAN_MOTION    = 12.95573850
ECCENTRICITY   = .00301671
INCLINATION    = 90.2429
RA_OF_ASC_NODE = 5.3290
ARG_OF_PERICENTER = 273.6796
MEAN_ANOMALY   = 86.0874

EPHEMERIS_TYPE = 0
CLASSIFICATION_TYPE = U
NORAD_CAT_ID   = 270262
ELEMENT_SET_NO = 999
REV_AT_EPOCH   = 27349
BSTAR          = .13169761E-2
MEAN_MOTION_DOT = .38E-5
MEAN_MOTION_DDOT = 0

CCSDS_OMM_VERS = 2.0
CREATION_DATE  = 
ORIGINATOR     = 

OBJECT_NAME    = UNKNOWN
OBJECT_ID      = 
CENTER_NAME    = EARTH
REF_FRAME      = TEME
TIME_SYSTEM    = UTC
MEAN_ELEMENT_THEORY = SGP/SGP4

EPOCH          = 2026-01-03T23:52:48.012960
MEAN_MOTION    = 14.34901498
ECCENTRICITY   = .00322878
INCLINATION    = 86.4356
RA_OF_ASC_NODE = 110.0211
ARG_OF_PERICENTER = 268.9297
MEAN_ANOMALY   = 90.8200

EPHEMERIS_TYPE = 0
CLASSIFICATION_TYPE = U
NORAD_CAT_ID   = 270263
ELEMENT_SET_NO = 999
REV_AT_EPOCH   = 30604
BSTAR          = .55116689E-3
MEAN_MOTION_DOT = .1594E-4
MEAN_MOTION_DDOT = 0

